GPS BIIA-10 (PRN 32)    
1 20959U 90103A   14299.99670299  .00000022  00000-0  00000+0 0  5500
2 20959  54.2790 203.6972 0114241 355.9441   4.0333  2.00568780175177
GPS BIIA-14 (PRN 26)    
1 22014U 92039A   14300.11723139  .00000001  00000-0  00000+0 0  3430
2 22014  55.7780 264.5847 0210660  73.9468 149.5648  2.00562123156898
GPS BIIA-23 (PRN 04)    
1 22877U 93068A   14299.92516252  .00000063  00000-0  00000+0 0  9380
2 22877  53.8004 138.2487 0110196  61.8077 287.0418  2.00759037153886
GPS BIIA-26 (PRN 10)    
1 23953U 96041A   14300.45416087  .00000022  00000-0  00000+0 0  5893
2 23953  53.9534 199.5253 0140267  50.6409 167.0165  2.00568030133974
GPS BIIR-2  (PRN 13)    
1 24876U 97035A   14300.37371134  .00000003  00000-0  00000+0 0   430
2 24876  55.9288 265.1124 0056903 128.8017 348.7362  2.00302798126505
GPS BIIA-28 (PRN 08)    
1 25030U 97067A   14300.31351072 -.00000032  00000-0  00000+0 0    96
2 25030  57.0526 326.1869 0148325 206.3046 231.6675  2.00738020124397
GPS BIIR-3  (PRN 11)    
1 25933U 99055A   14299.91721027  .00000052  00000-0  10000-3 0  4664
2 25933  51.0839 120.0383 0153880  77.2997 284.4589  2.00558116110317
GPS BIIR-4  (PRN 20)    
1 26360U 00025A   14300.39242455  .00000024  00000-0  00000+0 0  5841
2 26360  53.0863 195.0682 0059552  75.7840 177.9074  2.00559635106010
GPS BIIR-5  (PRN 28)    
1 26407U 00040A   14300.32308314 -.00000051  00000-0  00000+0 0  5245
2 26407  56.5963  22.7164 0197663 262.4722  56.9771  2.00562882104681
GPS BIIR-6  (PRN 14)    
1 26605U 00071A   14300.25789583  .00000002  00000-0  00000+0 0  5315
2 26605  55.5003 263.2246 0080840 247.6759 314.9001  2.00555422102280
GPS BIIR-7  (PRN 18)    
1 26690U 01004A   14300.50905603  .00000021  00000-0  00000+0 0  4205
2 26690  53.0232 198.0947 0156751 245.2971 231.9274  2.00554974100682
GPS BIIR-8  (PRN 16)    
1 27663U 03005A   14300.29520876 -.00000051  00000-0  00000+0 0  8512
2 27663  56.6785  22.3961 0076445  11.4001  46.3480  2.00562190 86047
GPS BIIR-9  (PRN 21)    
1 27704U 03010A   14300.27037064  .00000061  00000-0  00000+0 0  7300
2 27704  53.4555 138.2687 0218999 246.4364 114.4278  2.00563358 84844
GPS BIIR-10 (PRN 22)    
1 28129U 03058A   14300.25879796  .00000022  00000-0  00000+0 0  3019
2 28129  52.8968 198.1961 0075019 242.6957  20.2815  2.00557428 79540
GPS BIIR-11 (PRN 19)    
1 28190U 04009A   14300.40954262  .00000027  00000-0  00000+0 0  3108
2 28190  55.4258  84.2686 0105580  28.1005  26.8096  2.00564458 77728
GPS BIIR-12 (PRN 23)    
1 28361U 04023A   14300.45769469  .00000001  00000-0  00000+0 0  1179
2 28361  54.4523 259.3161 0097879 205.2162  34.2455  2.00558576 75801
GPS BIIR-13 (PRN 02)    
1 28474U 04045A   14300.36117591  .00000062  00000-0  00000+0 0   223
2 28474  53.8571 137.3370 0140309 224.3534 309.6778  2.00559325 73168
GPS BIIRM-1 (PRN 17)    
1 28874U 05038A   14300.47073941  .00000023  00000-0  00000+0 0  2568
2 28874  55.5925  81.3837 0098634 240.8605 118.6411  2.00564113 66575
GPS BIIRM-2 (PRN 31)    
1 29486U 06042A   14300.33107726 -.00000030  00000-0  00000+0 0  6785
2 29486  55.9903 320.6866 0083343 322.9338 216.4990  2.00565452 59288
GPS BIIRM-3 (PRN 12)    
1 29601U 06052A   14300.14338088 -.00000051  00000-0  00000+0 0  4850
2 29601  56.6456  21.3352 0049572  26.0576  61.9552  2.00581881 58195
GPS BIIRM-4 (PRN 15)    
1 32260U 07047A   14300.12410840 -.00000001  00000-0  00000+0 0  4007
2 32260  53.5866 256.5230 0067128  15.1994 183.9707  2.00548933 51582
GPS BIIRM-5 (PRN 29)    
1 32384U 07062A   14300.04909979  .00000022  00000-0  00000+0 0  4291
2 32384  55.6371  81.9267 0013046 304.9545 336.2134  2.00570887 50303
GPS BIIRM-6 (PRN 07)    
1 32711U 08012A   14300.24914557 -.00000030  00000-0  10000-3 0  1800
2 32711  55.7075 320.3005 0080712 203.0713 156.6057  2.00571271 48526
GPS BIIRM-8 (PRN 05)    
1 35752U 09043A   14300.50032300  .00000023  00000-0  00000+0 0  9432
2 35752  54.2516 198.5860 0038613  18.4806 187.7592  2.00558565 38109
GPS BIIF-1  (PRN 25)    
1 36585U 10022A   14298.97136667 -.00000054  00000-0  00000+0 0  7550
2 36585  55.9939  18.8513 0036065  37.7271 251.7166  2.00552103 32317
GPS BIIF-2  (PRN 01)    
1 37753U 11036A   14300.21344300  .00000065  00000-0  00000+0 0  2220
2 37753  55.0848 139.2302 0035366  21.9121 165.2490  2.00563347 24021
GPS BIIF-3  (PRN 24)    
1 38833U 12053A   14299.94128866 -.00000031  00000-0  00000+0 0  7920
2 38833  54.7515 318.1781 0024049   6.2227 353.8455  2.00560142 15088
GPS BIIF-4  (PRN 27)    
1 39166U 13023A   14299.79422849  .00000016  00000-0  10000-3 0  5519
2 39166  55.2944  78.7476 0014492  10.8131 349.2089  2.00562871 10602
GPS BIIF-5  (PRN 30)    
1 39533U 14008A   14299.29407981 -.00000035  00000-0  00000+0 0  2914
2 39533  54.8871 323.3363 0010696 196.1774 163.8354  2.00566809  4963
GPS BIIF-6  (PRN 06)    
1 39741U 14026A   14300.07452392  .00000066  00000-0  00000+0 0  1710
2 39741  55.0793 138.7460 0003929 142.8249 217.2711  2.00570021  3266
GPS BIIF-7  (PRN 09)    
1 40105U 14045A   14300.16375688  .00000001  00000-0  00000+0 0   751
2 40105  54.9635 258.7230 0004534 233.4195 126.5226  2.00556769  1717
